[{"OBJECT_NAME":"STARLINK-32138","OBJECT_ID":"2024-131A","EPOCH":"2026-03-09T22:19:45.668352","MEAN_MOTION":15.30193265,"ECCENTRICITY":0.00018239,"INCLINATION":53.1613,"RA_OF_ASC_NODE":51.4432,"ARG_OF_PERICENTER":104.4371,"MEAN_ANOMALY":255.6832,"EPHEMERIS_TYPE":0,"CLASSIFICATION_TYPE":"U","NORAD_CAT_ID":60255,"ELEMENT_SET_NO":999,"REV_AT_EPOCH":9205,"BSTAR":-5.5456119e-5,"MEAN_MOTION_DOT":-2.001e-5,"MEAN_MOTION_DDOT":0},{"OBJECT_NAME":"SCS-01 J","OBJECT_ID":"2025-100J","EPOCH":"2026-03-09T22:31:25.904064","MEAN_MOTION":15.31338011,"ECCENTRICITY":0.00063909,"INCLINATION":97.3693,"RA_OF_ASC_NODE":145.4824,"ARG_OF_PERICENTER":272.025,"MEAN_ANOMALY":88.026,"EPHEMERIS_TYPE":0,"CLASSIFICATION_TYPE":"U","NORAD_CAT_ID":63990,"ELEMENT_SET_NO":999,"REV_AT_EPOCH":4563,"BSTAR":0.0011832888,"MEAN_MOTION_DOT":0.00035886,"MEAN_MOTION_DDOT":0}]
